CAS-2T & KS-1Q          
1 41847U 16066G   21181.13747749  .00000208  00000-0  41380-4 0  9998
2 41847  98.6004 240.3223 0365275 182.3511 177.5974 14.38202253243704
NAYIF-1 (EO-88)         
1 42017U 17008BX  21181.46004431  .00002667  00000-0  99478-4 0  9997
2 42017  97.3149 248.8272 0007544  70.2327 289.9726 15.28265502243247
ZHUHAI-1 02 (CAS-4B)    
1 42759U 17034B   21181.53718625  .00000493  00000-0  42948-4 0  9999
2 42759  43.0172 109.1513 0009980 251.6914 277.2228 15.10243663223121
ZHUHAI-1 01 (CAS-4A)    
1 42761U 17034D   21181.25545480  .00000393  00000-0  36869-4 0  9992
2 42761  43.0168 109.7410 0009904 253.2165 235.3215 15.10329619223085
MAX VALIER SAT          
1 42778U 17036P   21181.43883897  .00001619  00000-0  70251-4 0  9994
2 42778  97.2539 229.6237 0013371 125.8626 234.3855 15.23660367223265
RADFXSAT (FOX-1B)       
1 43017U 17073E   21180.57390387  .00000507  00000-0  45050-4 0  9997
2 43017  97.7060  84.0821 0253321 260.8236  96.4243 14.79583430194918
FOX-1D (AO-92)          
1 43137U 18004AC  21180.99430269  .00001955  00000-0  80441-4 0  9996
2 43137  97.4064 254.8977 0009384 157.2556 202.9100 15.25312355192566
DIWATA-2B               
1 43678U 18084H   21181.39925798  .00000303  00000-0  35796-4 0  9994
2 43678  97.9259 306.7456 0010374  16.6275 343.5257 14.91761846145369
ES'HAIL 2               
1 43700U 18090A   21180.83814021  .00000136  00000-0  00000-0 0  9991
2 43700   0.0168 339.6183 0001562 148.2979 117.7391  1.00273520  9499
FOX-1CLIFF (AO-95)      
1 43770U 18099N   21181.43167753  .00000148  00000-0  18589-4 0  9995
2 43770  97.6646 251.3321 0014973  20.4726 339.7092 14.95344031140397
ITASAT 1                
1 43786U 18099AE  21181.41526398  .00000780  00000-0  75188-4 0  9994
2 43786  97.6666 252.0031 0015356  13.9841 346.1803 14.95635640140428
JY1SAT (JO-97)          
1 43803U 18099AX  21181.17628484  .00000052  00000-0  97487-5 0  9995
2 43803  97.6625 251.5197 0015331  13.8120 346.3517 14.95883817140393
UWE-4                   
1 43880U 18111E   21180.48294050  .00000895  00000-0  82948-4 0  9996
2 43880  97.6861  88.0109 0013667  67.1473 293.1190 14.96886108136881
PSAT2 (NO-104)          
1 44354U 19036R   21180.96537003  .00021773  00000-0  28667-3 0  9996
2 44354  28.5281  43.6126 0324245  51.7263 311.2042 15.13894309110866
BRICSAT2 (NO-103)       
1 44355U 19036S   21180.60291178  .00049869 -52481-5  52427-3 0  9991
2 44355  28.5253 358.9861 0259774 124.3299 238.2166 15.30681713111299
JAISAT-1                
1 44419U 19038F   21180.86689126  .00001403  00000-0  81144-4 0  9991
2 44419  97.5890 145.5225 0019281 269.9893  89.9128 15.13809372109672
DUCHIFAT-3              
1 44854U 19089C   21181.24526690  .00000470  00000-0  43931-4 0  9994
2 44854  36.9683  24.9862 0009222 251.4094 108.5650 14.99519092 85022
RS-44 & BREEZE-KM R/B   
1 44909U 19096E   21181.05863847  .00000037  00000-0  98622-4 0  9996
2 44909  82.5217 104.4393 0218559  63.7354 298.6026 12.79710558 70482
ORBITAL FACTORY 2 (OF-2)
1 45113U 19071C   21180.70351033  .00004010  00000-0  12384-3 0  9992
2 45113  51.6433 338.1132 0011582 340.0891  19.9639 15.35864735 79056
HUSKYSAT-1 (HO-107)     
1 45119U 19071J   21181.43046276  .00003561  00000-0  11115-3 0  9990
2 45119  51.6427 333.9620 0010973 339.5195  20.5346 15.35888904 79162
BY70-2                  
1 45857U 20042B   21181.44860987  .00001341  00000-0  19701-3 0  9996
2 45857  97.9839 257.0597 0011885 163.7905 196.3694 14.77069281 53466
SALSAT                  
1 46495U 20068K   21180.97331636  .00001250  00000-0  96034-4 0  9998
2 46495  97.6922 118.3933 0017706  32.6200 327.6115 15.03473996 41217
BY70-3                  
1 46839U 20079N   21181.50243019  .00003477  00000-0  10872-3 0  9997
2 46839  97.2396 255.0988 0008034 148.8475 335.9952 15.33777148 36200
RADFXSAT-2 (AO-109)     
1 47311U 21002C   21180.90827553  .00001482  00000-0  75871-4 0  9999
2 47311  60.6860 244.5710 0038851  55.2894 305.1842 15.21700144 24773
UVSQ-SAT                
1 47438U 21006AB  21180.87998941  .00001207  00000-0  71579-4 0  9995
2 47438  97.4865 241.8811 0014104  59.6570 300.6054 15.13172336 23931
DIY-1 (ARDUIQUBE)       
1 47963U 21022AH  21181.43977587  .00001652  00000-0  11321-3 0  9994
2 47963  97.5572  83.5438 0017647 260.8102  99.1130 15.07312825 13855
